GLOBALSTAR M075 [+]     
1 37192U 10054E   24045.22725748 -.00000104  00000+0  65279-6 0  9994
2 37192  51.9919 230.3157 0000809  83.8263  88.4718 12.62270665614257
GLOBALSTAR M073 [+]     
1 37193U 10054F   24045.58765587 -.00000075  00000+0  15834-3 0  9995
2 37193  52.0056 142.6598 0000766 109.7500 263.3637 12.62272199616137
GLOBALSTAR M083 [+]     
1 37739U 11033A   24045.55124878 -.00000083  00000+0  11697-3 0  9990
2 37739  51.9855  92.1711 0000505 146.8287   0.1393 12.62266013585149
GLOBALSTAR M088 [+]     
1 37740U 11033B   24045.61039733 -.00000089  00000+0  83385-4 0  9994
2 37740  51.9760 357.8929 0000173  59.0921 117.3551 12.62264720580694
GLOBALSTAR M091 [+]     
1 37741U 11033C   24045.54338719 -.00000073  00000+0  17371-3 0  9997
2 37741  52.0018 320.7808 0000286  54.5375 116.9137 12.62271198581475
GLOBALSTAR M085 [+]     
1 37742U 11033D   24045.37180924 -.00000087  00000+0  95486-4 0  9991
2 37742  51.9856 272.7759 0000570  77.5221  93.3758 12.62267847581963
GLOBALSTAR M081 [+]     
1 37743U 11033E   24045.60187741 -.00000077  00000+0  15203-3 0  9999
2 37743  51.9947 274.5600 0000590  55.9382 321.3611 12.62269687582147
GLOBALSTAR M089 [+]     
1 37744U 11033F   24045.48327248 -.00000094  00000+0  54788-4 0  9995
2 37744  51.9901 229.2385 0001097  72.7394 305.2770 12.62254498582970
